[{"OBJECT_NAME":"YAOGAN-30 09C","OBJECT_ID":"2021-039C","EPOCH":"2026-03-09T12:08:31.982208","MEAN_MOTION":15.02217537,"ECCENTRICITY":0.0003376,"INCLINATION":34.9946,"RA_OF_ASC_NODE":278.0042,"ARG_OF_PERICENTER":296.3595,"MEAN_ANOMALY":63.6766,"EPHEMERIS_TYPE":0,"CLASSIFICATION_TYPE":"U","NORAD_CAT_ID":48425,"ELEMENT_SET_NO":999,"REV_AT_EPOCH":26455,"BSTAR":0.00029017,"MEAN_MOTION_DOT":3.875e-5,"MEAN_MOTION_DDOT":0},{"OBJECT_NAME":"STARLINK-6287","OBJECT_ID":"2023-061AG","EPOCH":"2026-03-09T08:35:57.848352","MEAN_MOTION":15.02534595,"ECCENTRICITY":0.0001425,"INCLINATION":43.0036,"RA_OF_ASC_NODE":186.3692,"ARG_OF_PERICENTER":267.5844,"MEAN_ANOMALY":92.4835,"EPHEMERIS_TYPE":0,"CLASSIFICATION_TYPE":"U","NORAD_CAT_ID":56404,"ELEMENT_SET_NO":999,"REV_AT_EPOCH":15685,"BSTAR":3.8842e-5,"MEAN_MOTION_DOT":3.21e-6,"MEAN_MOTION_DDOT":0}]
